start=new Date('2021-11-22T00:00:00.000Z').valueOf();
sats=[{"LAUNCH_DATE":"2021-03-24","BSTAR":"0.00005095500000","COUNTRY_CODE":"US","REF_FRAME":"TEME","RCS_SIZE":"LARGE","TLE_LINE1":"1 48027U 21024BC  21325.55774767  .00000477  00000-0  50955-4 0  9997","RA_OF_ASC_NODE":"155.7219","MEAN_MOTION_DDOT":"0.0000000000000","OBJECT_NAME":"STARLINK-2300","REV_AT_EPOCH":"3834","EPOCH":"2021-11-21T13:23:09.398688","MEAN_MOTION":"15.06394731","TLE_LINE2":"2 48027  53.0546 155.7219 0001917  79.2400 280.8805 15.06394731 38344","TIME_SYSTEM":"UTC","MEAN_ANOMALY":"280.8805","PERIOD":"95.592","MEAN_MOTION_DOT":"0.00000477","APOAPSIS":"548.557","CENTER_NAME":"EARTH","OBJECT_TYPE":"PAYLOAD","INCLINATION":"53.0546","DECAY_DATE":null,"SEMIMAJOR_AXIS":"6925.365","MEAN_ELEMENT_THEORY":"SGP4","ECCENTRICITY":"0.00019170","FILE":"3220686","ELEMENT_SET_NO":"999","NORAD_CAT_ID":"48027","GP_ID":"190203510","SITE":"AFETR","ARG_OF_PERICENTER":"79.2400","OBJECT_ID":"2021-024BC","PERIAPSIS":"545.902","EPHEMERIS_TYPE":"0","CLASSIFICATION_TYPE":"U"},{"REF_FRAME":"TEME","RCS_SIZE":"LARGE","TLE_LINE1":"1 48028U 21024BD  21325.58334491 -.00033347  00000-0 -22286-2 0  9995","RA_OF_ASC_NODE":"110.5990","MEAN_MOTION_DDOT":"0.0000000000000","OBJECT_NAME":"STARLINK-2264","REV_AT_EPOCH":"360","LAUNCH_DATE":"2021-03-24","BSTAR":"-0.00222860000000","COUNTRY_CODE":"US","PERIOD":"95.591","MEAN_MOTION_DOT":"-0.00033347","CENTER_NAME":"EARTH","APOAPSIS":"548.826","INCLINATION":"53.0553","OBJECT_TYPE":"PAYLOAD","EPOCH":"2021-11-21T14:00:01.000224","TLE_LINE2":"2 48028  53.0553 110.5990 0002442  96.3072 335.2847 15.06425738  3601","MEAN_MOTION":"15.06425738","TIME_SYSTEM":"UTC","MEAN_ANOMALY":"335.2847","FILE":"3220686","ELEMENT_SET_NO":"999","NORAD_CAT_ID":"48028","GP_ID":"190203760","DECAY_DATE":null,"SEMIMAJOR_AXIS":"6925.270","MEAN_ELEMENT_THEORY":"SGP4","ECCENTRICITY":"0.00024420","PERIAPSIS":"545.444","EPHEMERIS_TYPE":"0","CLASSIFICATION_TYPE":"U","SITE":"AFETR","ARG_OF_PERICENTER":"96.3072","OBJECT_ID":"2021-024BD"},{"PERIOD":"95.593","OBJECT_TYPE":"PAYLOAD","INCLINATION":"53.0556","APOAPSIS":"548.573","CENTER_NAME":"EARTH","MEAN_MOTION_DOT":"0.00000820","EPOCH":"2021-11-21T14:18:54.052416","MEAN_ANOMALY":"283.1613","TIME_SYSTEM":"UTC","TLE_LINE2":"2 48029  53.0556 175.5631 0001922  76.9590 283.1613 15.06390625 38133","MEAN_MOTION":"15.06390625","TLE_LINE1":"1 48029U 21024BE  21325.59645894  .00000820  00000-0  73994-4 0  9991","RCS_SIZE":"LARGE","REF_FRAME":"TEME","REV_AT_EPOCH":"3813","MEAN_MOTION_DDOT":"0.0000000000000","OBJECT_NAME":"STARLINK-2299","RA_OF_ASC_NODE":"175.5631","LAUNCH_DATE":"2021-03-24","COUNTRY_CODE":"US","BSTAR":"0.00007399400000","EPHEMERIS_TYPE":"0","PERIAPSIS":"545.911","CLASSIFICATION_TYPE":"U","SITE":"AFETR","OBJECT_ID":"2021-024BE","ARG_OF_PERICENTER":"76.9590","ELEMENT_SET_NO":"999","FILE":"3220686","GP_ID":"190204511","NORAD_CAT_ID":"48029","ECCENTRICITY":"0.00019220","MEAN_ELEMENT_THEORY":"SGP4","SEMIMAJOR_AXIS":"6925.377","DECAY_DATE":null},{"NORAD_CAT_ID":"48030","GP_ID":"190209551","FILE":"3220849","ELEMENT_SET_NO":"999","SEMIMAJOR_AXIS":"6925.376","DECAY_DATE":null,"ECCENTRICITY":"0.00019240","MEAN_ELEMENT_THEORY":"SGP4","CLASSIFICATION_TYPE":"U","EPHEMERIS_TYPE":"0","PERIAPSIS":"545.909","ARG_OF_PERICENTER":"76.4539","OBJECT_ID":"2021-024BF","SITE":"AFETR","RA_OF_ASC_NODE":"179.8206","REV_AT_EPOCH":"3755","MEAN_MOTION_DDOT":"0.0000000000000","OBJECT_NAME":"STARLINK-2268","RCS_SIZE":"LARGE","REF_FRAME":"TEME","TLE_LINE1":"1 48030U 21024BF  21325.75633115 -.00000983  00000-0 -47133-4 0  9992","COUNTRY_CODE":"US","BSTAR":"-0.00004713300000","LAUNCH_DATE":"2021-03-24","CENTER_NAME":"EARTH","APOAPSIS":"548.574","MEAN_MOTION_DOT":"-0.00000983","OBJECT_TYPE":"PAYLOAD","INCLINATION":"53.0541","PERIOD":"95.593","TLE_LINE2":"2 48030  53.0541 179.8206 0001924  76.4539 283.6664 15.06390915 37552","MEAN_MOTION":"15.06390915","MEAN_ANOMALY":"283.6664","TIME_SYSTEM":"UTC","EPOCH":"2021-11-21T18:09:07.011360"},{"SEMIMAJOR_AXIS":"6727.705","DECAY_DATE":null,"ECCENTRICITY":"0.00087540","MEAN_ELEMENT_THEORY":"SGP4","NORAD_CAT_ID":"48031","GP_ID":"190209925","FILE":"3220849","ELEMENT_SET_NO":"999","ARG_OF_PERICENTER":"312.3808","OBJECT_ID":"2021-024BG","SITE":"AFETR","CLASSIFICATION_TYPE":"U","EPHEMERIS_TYPE":"0","PERIAPSIS":"343.680","COUNTRY_CODE":"US","BSTAR":"-0.00062667000000","LAUNCH_DATE":"2021-03-24","RA_OF_ASC_NODE":"79.0712","REV_AT_EPOCH":"3897","OBJECT_NAME":"STARLINK-2267","MEAN_MOTION_DDOT":"0.0000000000000","RCS_SIZE":"LARGE","REF_FRAME":"TEME","TLE_LINE1":"1 48031U 21024BG  21325.91667824 -.00088161  00000-0 -62667-3 0  9997","TLE_LINE2":"2 48031  53.0424  79.0712 0008754 312.3808 105.2296 15.73266847 38972","MEAN_MOTION":"15.73266847","MEAN_ANOMALY":"105.2296","TIME_SYSTEM":"UTC","EPOCH":"2021-11-21T22:00:00.999936","APOAPSIS":"355.459","CENTER_NAME":"EARTH","MEAN_MOTION_DOT":"-0.00088161","INCLINATION":"53.0424","OBJECT_TYPE":"PAYLOAD","PERIOD":"91.529"},{"PERIAPSIS":"343.259","EPHEMERIS_TYPE":"0","CLASSIFICATION_TYPE":"U","SITE":"AFETR","ARG_OF_PERICENTER":"308.5344","OBJECT_ID":"2021-024BH","FILE":"3220899","ELEMENT_SET_NO":"999","NORAD_CAT_ID":"48032","GP_ID":"190210684","DECAY_DATE":null,"SEMIMAJOR_AXIS":"6727.244","MEAN_ELEMENT_THEORY":"SGP4","ECCENTRICITY":"0.00086970","PERIOD":"91.520","MEAN_MOTION_DOT":"-0.00557883","CENTER_NAME":"EARTH","APOAPSIS":"354.960","OBJECT_TYPE":"PAYLOAD","INCLINATION":"53.0482","EPOCH":"2021-11-21T22:00:00.999936","TLE_LINE2":"2 48032  53.0482  79.0962 0008697 308.5344 109.6842 15.73428298 38977","MEAN_MOTION":"15.73428298","TIME_SYSTEM":"UTC","MEAN_ANOMALY":"109.6842","REF_FRAME":"TEME","RCS_SIZE":"LARGE","TLE_LINE1":"1 48032U 21024BH  21325.91667824 -.00557883  00000-0 -41823-2 0  9990","RA_OF_ASC_NODE":"79.0962","MEAN_MOTION_DDOT":"0.0000000000000","OBJECT_NAME":"STARLINK-2297","REV_AT_EPOCH":"3897","LAUNCH_DATE":"2021-03-24","BSTAR":"-0.00418230000000","COUNTRY_CODE":"US"},{"TLE_LINE2":"2 48033  53.0532 174.9231 0001894  75.0559 285.0640 15.07208150 37620","MEAN_MOTION":"15.07208150","MEAN_ANOMALY":"285.0640","TIME_SYSTEM":"UTC","EPOCH":"2021-11-21T17:17:59.916768","APOAPSIS":"546.049","CENTER_NAME":"EARTH","MEAN_MOTION_DOT":"-0.00000176","INCLINATION":"53.0532","OBJECT_TYPE":"PAYLOAD","PERIOD":"95.541","COUNTRY_CODE":"US","BSTAR":"0.00000710140000","LAUNCH_DATE":"2021-03-24","RA_OF_ASC_NODE":"174.9231","REV_AT_EPOCH":"3762","MEAN_MOTION_DDOT":"0.0000000000000","OBJECT_NAME":"STARLINK-2286","RCS_SIZE":"LARGE","REF_FRAME":"TEME","TLE_LINE1":"1 48033U 21024BJ  21325.72083237 -.00000176  00000-0  71014-5 0  9995","ARG_OF_PERICENTER":"75.0559","OBJECT_ID":"2021-024BJ","SITE":"AFETR","CLASSIFICATION_TYPE":"U","EPHEMERIS_TYPE":"0","PERIAPSIS":"543.427","SEMIMAJOR_AXIS":"6922.873","DECAY_DATE":null,"ECCENTRICITY":"0.00018940","MEAN_ELEMENT_THEORY":"SGP4","NORAD_CAT_ID":"48033","GP_ID":"190209550","FILE":"3220849","ELEMENT_SET_NO":"999"},{"ELEMENT_SET_NO":"999","FILE":"3220686","GP_ID":"190204758","NORAD_CAT_ID":"48034","ECCENTRICITY":"0.00020080","MEAN_ELEMENT_THEORY":"SGP4","SEMIMAJOR_AXIS":"6925.367","DECAY_DATE":null,"EPHEMERIS_TYPE":"0","PERIAPSIS":"545.841","CLASSIFICATION_TYPE":"U","SITE":"AFETR","OBJECT_ID":"2021-024BK","ARG_OF_PERICENTER":"75.8363","TLE_LINE1":"1 48034U 21024BK  21325.07304743  .00001413  00000-0  11378-3 0  9991","RCS_SIZE":"LARGE","REF_FRAME":"TEME","REV_AT_EPOCH":"3805","MEAN_MOTION_DDOT":"0.0000000000000","OBJECT_NAME":"STARLINK-2288","RA_OF_ASC_NODE":"177.9063","LAUNCH_DATE":"2021-03-24","COUNTRY_CODE":"US","BSTAR":"0.00011378000000","PERIOD":"95.593","OBJECT_TYPE":"PAYLOAD","INCLINATION":"53.0554","APOAPSIS":"548.623","CENTER_NAME":"EARTH","MEAN_MOTION_DOT":"0.00001413","EPOCH":"2021-11-21T01:45:11.297952","MEAN_ANOMALY":"284.2849","TIME_SYSTEM":"UTC","TLE_LINE2":"2 48034  53.0554 177.9063 0002008  75.8363 284.2849 15.06393963 38056","MEAN_MOTION":"15.06393963"},{"OBJECT_ID":"2021-024BL","ARG_OF_PERICENTER":"269.4985","SITE":"AFETR","CLASSIFICATION_TYPE":"U","PERIAPSIS":"339.853","EPHEMERIS_TYPE":"0","MEAN_ELEMENT_THEORY":"SGP4","ECCENTRICITY":"0.00069600","DECAY_DATE":null,"SEMIMAJOR_AXIS":"6722.667","GP_ID":"190203511","NORAD_CAT_ID":"48035","ELEMENT_SET_NO":"999","FILE":"3220686","TIME_SYSTEM":"UTC","MEAN_ANOMALY":"65.5076","MEAN_MOTION":"15.75035623","TLE_LINE2":"2 48035  53.0546  80.7805 0006960 269.4985  65.5076 15.75035623  3703","EPOCH":"2021-11-21T14:00:01.000224","INCLINATION":"53.0546","OBJECT_TYPE":"PAYLOAD","MEAN_MOTION_DOT":"0.00812114","APOAPSIS":"349.211","CENTER_NAME":"EARTH","PERIOD":"91.427","BSTAR":"0.00485310000000","COUNTRY_CODE":"US","LAUNCH_DATE":"2021-03-24","OBJECT_NAME":"STARLINK-2287","MEAN_MOTION_DDOT":"0.0000000000000","REV_AT_EPOCH":"370","RA_OF_ASC_NODE":"80.7805","TLE_LINE1":"1 48035U 21024BL  21325.58334491  .00812114  00000-0  48531-2 0  9999","REF_FRAME":"TEME","RCS_SIZE":"MEDIUM"},{"LAUNCH_DATE":"2021-03-24","COUNTRY_CODE":"US","BSTAR":"0.00006905900000","TLE_LINE1":"1 48036U 21024BM  21325.74388590  .00000747  00000-0  69059-4 0  9998","RCS_SIZE":"LARGE","REF_FRAME":"TEME","REV_AT_EPOCH":"3762","OBJECT_NAME":"STARLINK-2295","MEAN_MOTION_DDOT":"0.0000000000000","RA_OF_ASC_NODE":"174.8943","EPOCH":"2021-11-21T17:51:11.741760","MEAN_ANOMALY":"280.0569","TIME_SYSTEM":"UTC","TLE_LINE2":"2 48036  53.0537 174.8943 0002003  80.0646 280.0569 15.06397840 37622","MEAN_MOTION":"15.06397840","PERIOD":"95.592","OBJECT_TYPE":"PAYLOAD","INCLINATION":"53.0537","CENTER_NAME":"EARTH","APOAPSIS":"548.607","MEAN_MOTION_DOT":"0.00000747","ECCENTRICITY":"0.00020030","MEAN_ELEMENT_THEORY":"SGP4","SEMIMAJOR_AXIS":"6925.355","DECAY_DATE":null,"ELEMENT_SET_NO":"999","FILE":"3220849","GP_ID":"190209926","NORAD_CAT_ID":"48036","SITE":"AFETR","OBJECT_ID":"2021-024BM","ARG_OF_PERICENTER":"80.0646","EPHEMERIS_TYPE":"0","PERIAPSIS":"545.833","CLASSIFICATION_TYPE":"U"}];
